     2              NAVIGATION DATA                         RINEX VERSION / TYPE
CCRINEXN V1.6.0 UX  CDDIS               12-APR-22 19:31     PGM / RUN BY / DATE 
IGS BROADCAST EPHEMERIS FILE                                COMMENT             
    0.1676D-07  0.1490D-07 -0.1192D-06 -0.5960D-07          ION ALPHA           
    0.1085D+06  0.3277D+05 -0.2621D+06 -0.6554D+05          ION BETA            
    0.931322574615D-09 0.000000000000D+00   319488     2205 DELTA-UTC: A0,A1,T,W
    18                                                      LEAP SECONDS        
                                                            END OF HEADER       
28 22  4 11  8  0  0.0 0.372379552573D-03-0.329691829393D-11 0.000000000000D+00
    0.130000000000D+02 0.540625000000D+01 0.427517807833D-08-0.275974898873D+01
    0.305473804474D-06 0.166408000514D-01 0.670365989208D-05 0.515368373489D+04
    0.115200000000D+06 0.132247805595D-06 0.135762427548D+01 0.558793544769D-07
    0.968546275909D+00 0.253718750000D+03-0.128229730257D+01-0.761960310134D-08
   -0.451804533758D-09 0.100000000000D+01 0.220500000000D+04 0.000000000000D+00
    0.200000000000D+01 0.630000000000D+02-0.111758708954D-07 0.130000000000D+02
    0.108018000000D+06 0.400000000000D+01 0.000000000000D+00 0.000000000000D+00
29 22  4 11  8  0  0.0-0.501773320138D-03-0.432009983342D-11 0.000000000000D+00
    0.540000000000D+02 0.364375000000D+02 0.375408494413D-08-0.307015216978D+01
    0.192970037460D-05 0.202807027381D-02 0.860728323460D-05 0.515372902298D+04
    0.115200000000D+06 0.186264514923D-07 0.238683681763D+01-0.204890966415D-07
    0.981337605885D+00 0.225125000000D+03 0.223461328797D+01-0.766281918718D-08
   -0.142505935944D-09 0.100000000000D+01 0.220500000000D+04 0.000000000000D+00
    0.200000000000D+01 0.000000000000D+00-0.102445483208D-07 0.540000000000D+02
    0.112728000000D+06 0.400000000000D+01 0.000000000000D+00 0.000000000000D+00
30 22  4 11  8  0  0.0-0.523227266967D-03-0.181898940355D-11 0.000000000000D+00
    0.930000000000D+02 0.339062500000D+02 0.529522056719D-08 0.222188922443D+00
    0.169686973095D-05 0.567955267616D-02 0.705011188984D-05 0.515378165626D+04
    0.115200000000D+06-0.130385160446D-07 0.234842858079D+00 0.484287738800D-07
    0.936416314390D+00 0.225406250000D+03-0.272059446324D+01-0.841499337539D-08
    0.785747015231D-10 0.100000000000D+01 0.220500000000D+04 0.000000000000D+00
    0.280000000000D+01 0.000000000000D+00 0.372529029846D-08 0.930000000000D+02
    0.108018000000D+06 0.400000000000D+01 0.000000000000D+00 0.000000000000D+00
31 22  4 11  8  0  0.0-0.172921456397D-03-0.170530256582D-11 0.000000000000D+00
    0.740000000000D+02 0.311875000000D+02 0.490306137504D-08-0.267375522910D+00
    0.161677598953D-05 0.104278177023D-01 0.729225575924D-05 0.515371199799D+04
    0.115200000000D+06 0.968575477600D-07 0.240842627445D+00 0.117346644402D-06
    0.955472422804D+00 0.235187500000D+03 0.384496801389D+00-0.827641617453D-08
    0.685742849656D-10 0.100000000000D+01 0.220500000000D+04 0.000000000000D+00
    0.282842707634D+01 0.000000000000D+00-0.135041773319D-07 0.740000000000D+02
    0.111337000000D+06 0.400000000000D+01 0.000000000000D+00 0.000000000000D+00
32 22  4 11  8  0  0.0-0.103033613414D-03-0.795807864051D-11 0.000000000000D+00
    0.220000000000D+02-0.528437500000D+02 0.452483133453D-08-0.256787967838D+01
   -0.271387398243D-05 0.586068944540D-02 0.104308128357D-04 0.515359135437D+04
    0.115200000000D+06 0.800937414169D-07-0.837501123089D+00-0.931322574615D-07
    0.958112518878D+00 0.174593750000D+03-0.230330579427D+01-0.787675666996D-08
    0.125719522437D-09 0.100000000000D+01 0.220500000000D+04 0.000000000000D+00
    0.200000000000D+01 0.000000000000D+00 0.465661287308D-09 0.220000000000D+02
    0.108073000000D+06 0.400000000000D+01 0.000000000000D+00 0.000000000000D+00
23 22  4 11  8 44 32.0-0.140746124089D-04-0.284217094304D-11 0.000000000000D+00
    0.235000000000D+03-0.640312500000D+02 0.454197490577D-08 0.498346494726D+00
   -0.330992043018D-05 0.203894928563D-02 0.470504164696D-05 0.515370742607D+04
    0.117872000000D+06 0.186264514923D-08-0.190521965280D+01 0.186264514923D-08
    0.967817755871D+00 0.293468750000D+03 0.300256697251D+01-0.816391148825D-08
    0.400016662300D-10 0.100000000000D+01 0.220500000000D+04 0.000000000000D+00
    0.200000000000D+01 0.000000000000D+00-0.838190317154D-08 0.491000000000D+03
    0.110767000000D+06 0.400000000000D+01 0.000000000000D+00 0.000000000000D+00
 1 22  4 11  9 59 44.0 0.387612730265D-03-0.875388650456D-11 0.000000000000D+00
    0.300000000000D+01 0.426250000000D+02 0.387730436243D-08 0.191188981023D+01
    0.212527811527D-05 0.117021816550D-01 0.499933958054D-05 0.515366943932D+04
    0.122384000000D+06-0.238418579102D-06-0.291170010548D+01-0.167638063431D-06
    0.987642690642D+00 0.297656250000D+03 0.890756973409D+00-0.798961851397D-08
    0.311084386485D-09 0.100000000000D+01 0.220500000000D+04 0.000000000000D+00
    0.200000000000D+01 0.000000000000D+00 0.512227416039D-08 0.300000000000D+01
    0.115267000000D+06 0.400000000000D+01 0.000000000000D+00 0.000000000000D+00
 2 22  4 11  9 59 44.0-0.653043854982D-03-0.227373675443D-12 0.000000000000D+00
    0.400000000000D+01 0.556250000000D+02 0.413517224652D-08 0.205376988586D+01
    0.275485217571D-05 0.205229413696D-01 0.494159758091D-05 0.515364253426D+04
    0.122384000000D+06 0.296160578728D-06-0.300206687104D+01-0.856816768646D-07
    0.965875315189D+00 0.280093750000D+03-0.142525337054D+01-0.777782397759D-08
    0.242510101519D-09 0.100000000000D+01 0.220500000000D+04 0.000000000000D+00
    0.200000000000D+01 0.000000000000D+00-0.176951289177D-07 0.400000000000D+01
    0.118716000000D+06 0.400000000000D+01 0.000000000000D+00 0.000000000000D+00
 3 22  4 11  9 59 44.0-0.202050432563D-03-0.154614099301D-10 0.000000000000D+00
    0.120000000000D+02-0.734687500000D+02 0.440089760076D-08 0.789489763863D+00
   -0.403635203838D-05 0.402957189363D-02 0.492855906486D-05 0.515364910317D+04
    0.122384000000D+06-0.558793544769D-08-0.187734185871D+01 0.670552253723D-07
    0.972924004133D+00 0.289656250000D+03 0.941204966062D+00-0.822998566908D-08
   -0.278583032673D-10 0.100000000000D+01 0.220500000000D+04 0.000000000000D+00
    0.200000000000D+01 0.000000000000D+00 0.186264514923D-08 0.120000000000D+02
    0.115753000000D+06 0.400000000000D+01 0.000000000000D+00 0.000000000000D+00
 9 22  4 11  9 59 44.0-0.344431959093D-03 0.238742359215D-11 0.000000000000D+00
    0.300000000000D+01-0.604062500000D+02 0.469198115413D-08-0.171094175024D+01
   -0.300444662571D-05 0.211394182406D-02 0.106710940599D-04 0.515359144974D+04
    0.122384000000D+06-0.353902578354D-07-0.848998461062D+00 0.745058059692D-07
    0.954275448603D+00 0.173437500000D+03 0.187688008130D+01-0.796211736843D-08
    0.147148986489D-09 0.100000000000D+01 0.220500000000D+04 0.000000000000D+00
    0.200000000000D+01 0.000000000000D+00 0.139698386192D-08 0.300000000000D+01
    0.118068000000D+06 0.400000000000D+01 0.000000000000D+00 0.000000000000D+00
15 22  4 11  9 59 44.0-0.698058865964D-04 0.295585778076D-11 0.000000000000D+00
    0.100000000000D+02-0.742812500000D+02 0.516592946741D-08-0.313036749884D+01
   -0.401400029659D-05 0.139869755367D-01 0.922009348869D-05 0.515377001572D+04
    0.122384000000D+06 0.135973095894D-06-0.956496339649D+00-0.232830643654D-06
    0.930090966754D+00 0.184875000000D+03 0.108434615900D+01-0.801819113270D-08
    0.700029159024D-10 0.100000000000D+01 0.220500000000D+04 0.000000000000D+00
    0.200000000000D+01 0.000000000000D+00-0.107102096081D-07 0.100000000000D+02
    0.115218000000D+06 0.400000000000D+01 0.000000000000D+00 0.000000000000D+00
17 22  4 11  9 59 44.0 0.598920974880D-03 0.488853402203D-11 0.000000000000D+00
    0.700000000000D+01 0.567812500000D+02 0.375765652148D-08-0.223908532614D+01
    0.291317701340D-05 0.134609215893D-01 0.960752367973D-05 0.515379035568D+04
    0.122384000000D+06 0.258907675743D-06 0.237365391861D+01 0.782310962677D-07
    0.979288591621D+00 0.203718750000D+03-0.149075927993D+01-0.748566895102D-08
   -0.208580116771D-09 0.100000000000D+01 0.220500000000D+04 0.000000000000D+00
    0.200000000000D+01 0.000000000000D+00-0.111758708954D-07 0.700000000000D+01
    0.117379000000D+06 0.400000000000D+01 0.000000000000D+00 0.000000000000D+00
22 22  4 11  9 59 44.0 0.241608358920D-03 0.602540239925D-11 0.000000000000D+00
    0.290000000000D+02-0.396562500000D+02 0.444375652887D-08-0.232143674598D+01
   -0.204332172871D-05 0.132139218040D-01 0.997260212898D-05 0.515367942047D+04
    0.122384000000D+06 0.156462192535D-06-0.747253384937D+00 0.298023223877D-07
    0.961450807234D+00 0.182906250000D+03-0.186022468729D+01-0.766603360679D-08
    0.248581783001D-09 0.100000000000D+01 0.220500000000D+04 0.000000000000D+00
    0.200000000000D+01 0.000000000000D+00-0.977888703346D-08 0.290000000000D+02
    0.115271000000D+06 0.400000000000D+01 0.000000000000D+00 0.000000000000D+00
25 22  4 11  9 59 44.0 0.310483388603D-03 0.500222085975D-11 0.000000000000D+00
    0.400000000000D+01 0.409375000000D+01 0.488056043779D-08 0.320165897566D+00
    0.331550836563D-06 0.105619876413D-01 0.619329512119D-05 0.515368275452D+04
    0.122384000000D+06-0.134110450745D-06 0.125808433917D+01 0.134110450745D-06
    0.956968089768D+00 0.257468750000D+03 0.998549182336D+00-0.836749139675D-08
   -0.430017911972D-09 0.100000000000D+01 0.220500000000D+04 0.000000000000D+00
    0.200000000000D+01 0.000000000000D+00 0.558793544769D-08 0.400000000000D+01
    0.118027000000D+06 0.400000000000D+01 0.000000000000D+00 0.000000000000D+00
